AMC-3                   
1 24936U 97050A   26095.36086236 -.00000258  00000+0  00000+0 0  9995
2 24936   7.9685  64.9035 0003288 309.8504 236.8131  1.00271324 51705
NSS-11                  
1 26554U 00059A   26095.70855558  .00000027  00000+0  00000+0 0  9998
2 26554   1.9394  82.2263 0003163 297.4735 245.3815  1.00272028 40568
AMC-6                   
1 26580U 00067A   26095.71826229  .00000090  00000+0  00000+0 0  9990
2 26580   0.0638  59.5402 0003704 329.0068 288.9863  1.00270904 93163
AMC-11                  
1 28252U 04017A   26095.65168300 -.00000048  00000+0  00000+0 0  9993
2 28252   0.1228  80.3228 0003328 303.3609 293.7736  1.00271429 80132
AMC-15                  
1 28446U 04041A   26095.58158693 -.00000087  00000+0  00000+0 0  9994
2 28446   0.0517  53.0955 0002247 325.3385 279.7748  1.00272394 78579
NSS-10                  
1 28526U 05003A   26095.80882889 -.00000248  00000+0  00000+0 0  9997
2 28526   6.2690  71.3159 0003241 304.8528  71.6648  1.00271647 52438
ASTRA 1KR               
1 29055U 06012A   26095.82000895  .00000121  00000+0  00000+0 0  9996
2 29055   0.2868  82.1772 0003592 291.7155 134.4134  1.00271231 44974
ASTRA 1L                
1 31306U 07016A   26095.81142890 -.00000182  00000+0  00000+0 0  9992
2 31306   1.1346  82.0762 0004431 312.4502  67.1749  1.00272581 44260
ASTRA 4A                
1 32299U 07057A   26095.33655757  .00000034  00000+0  00000+0 0  9992
2 32299   0.0517  58.7195 0002681 326.6568 294.2255  1.00271116 50911
ASTRA 1M                
1 33436U 08057A   26095.82009561  .00000123  00000+0  00000+0 0  9996
2 33436   0.1112  75.4493 0003052 357.1367  76.1269  1.00272778 45015
NSS-9                   
1 33749U 09008A   26095.78126878  .00000074  00000+0  00000+0 0  9991
2 33749   1.0743  83.2906 0002227 286.6065 288.4977  1.00272769 62790
SES-7 (PROTOSTAR 2)     
1 34941U 09027A   26095.83770715 -.00000343  00000+0  00000+0 0  9998
2 34941   0.0927  78.5575 0001864 245.5108 279.8884  1.00271979 61900
NSS-12                  
1 36032U 09058A   26095.81242748  .00000073  00000+0  00000+0 0  9992
2 36032   0.0757  62.6365 0005015 298.1814 182.7617  1.00271943 60192
SES-1                   
1 36516U 10016A   26095.65367634 -.00000113  00000+0  00000+0 0  9995
2 36516   0.0264 285.1662 0002639  93.2437 309.8600  1.00272896 58300
ASTRA 3B                
1 36581U 10021A   26095.82096227  .00000139  00000+0  00000+0 0  9996
2 36581   1.2823  84.4125 0003614 307.6475 121.0899  1.00273030 58145
SES-3                   
1 37748U 11035A   26095.65324300 -.00000100  00000+0  00000+0 0  9994
2 37748   1.1389  83.8382 0003430 297.1989 305.0777  1.00272355 53866
ASTRA 1N                
1 37775U 11041A   26095.82009561  .00000121  00000+0  00000+0 0  9991
2 37775   0.0897  43.5139 0005147 359.5605 105.4491  1.00270379 43808
SES-2                   
1 37809U 11049A   26095.58514028 -.00000194  00000+0  00000+0 0  9990
2 37809   0.0567  68.3839 0002963 310.0174 299.1355  1.00272153 53238
QUETZSAT 1              
1 37826U 11054A   26095.80102887 -.00000240  00000+0  00000+0 0  9998
2 37826   0.0513  61.3963 0002306 316.2330  27.8430  1.00271162 49146
SES-4                   
1 38087U 12007A   26095.81194890 -.00000166  00000+0  00000+0 0  9990
2 38087   0.0286  64.2350 0002305 318.8514  81.3271  1.00271837 51506
SES-5                   
1 38652U 12036A   26095.67464976  .00000035  00000+0  00000+0 0  9993
2 38652   0.0591 303.5934 0002095  73.8979  64.3242  1.00273023 43722
ASTRA 2F                
1 38778U 12051A   26095.82182895  .00000152  00000+0  00000+0 0  9993
2 38778   0.0633 254.7265 0001317  32.7424 230.7017  1.00270195 40416
SES-6                   
1 39172U 13026A   26095.80830890 -.00000259  00000+0  00000+0 0  9997
2 39172   0.0367 293.0106 0002724  85.8937  65.6973  1.00272797 46995
O3B FM5                 
1 39188U 13031A   26095.67972023 -.00000025  00000+0  00000+0 0  9991
2 39188   0.1019   5.5448 0003225 359.3404 355.1169  5.00116550233414
O3B FM4                 
1 39189U 13031B   26086.40408870 -.00000028  00000+0  00000+0 0  9990
2 39189   0.0535 345.5776 0005068  27.4764 346.9547  5.00115128232953
O3B FM2                 
1 39190U 13031C   26094.86513521 -.00000026  00000+0  00000+0 0  9999
2 39190   0.0514 339.0477 0002770  33.0431 347.9145  5.00116057233441
O3B PFM                 
1 39191U 13031D   26095.07914012 -.00000025  00000+0  00000+0 0  9993
2 39191   0.0701   3.8026 0005400  16.8934 339.3246  5.00116068233018
ASTRA 2E                
1 39285U 13056A   26095.82191560  .00000152  00000+0  00000+0 0  9992
2 39285   0.0887  44.5131 0002316 329.6791 144.2941  1.00272747 45698
SES-8                   
1 39460U 13071A   26095.87822834 -.00000268  00000+0  00000+0 0  9993
2 39460   0.0188 255.9310 0002467 150.3704 199.0319  1.00271814 43716
ASTRA 5B                
1 39617U 14011B   26095.82096227  .00000139  00000+0  00000+0 0  9992
2 39617   0.0718 307.4353 0003338  49.8929 155.8220  1.00273659 43943
O3B FM3                 
1 40079U 14038A   26095.74545174 -.00000025  00000+0  00000+0 0  9991
2 40079   0.0526 354.7098 0001054  87.5110 277.7900  5.00115655209420
O3B FM7                 
1 40080U 14038B   26095.69154722 -.00000025  00000+0  00000+0 0  9992
2 40080   0.0566 348.1143 0004257  12.2324 359.6524  5.00115674214254
O3B FM6                 
1 40081U 14038C   26095.51865520 -.00000025  00000+0  00000+0 0  9999
2 40081   0.0536 351.8729 0002639  21.9506 346.1826  5.00115755214182
O3B FM8                 
1 40082U 14038D   26095.77184487 -.00000025  00000+0  00000+0 0  9994
2 40082   0.0542 350.8846 0002680  26.7326 342.3910  5.00116051214315
O3B FM10                
1 40348U 14083A   26095.59906363 -.00000025  00000+0  00000+0 0  9994
2 40348   0.0432 335.9482 0002690  37.2869 346.7708  5.00115388206268
O3B FM11                
1 40349U 14083B   26095.41186919 -.00000025  00000+0  00000+0 0  9993
2 40349   0.0580   0.0142 0003011   1.4390 358.5465  5.00115628206275
O3B FM12                
1 40350U 14083C   26095.63883298 -.00000025  00000+0  00000+0 0  9993
2 40350   0.0571 359.4878 0002584  11.7125 348.8043  5.00115976206289
O3B FM9                 
1 40351U 14083D   26093.26697712 -.00000026  00000+0  00000+0 0  9996
2 40351   0.0591   0.1634 0002706  11.5018 348.3391  5.00115977206324
ASTRA 2G                
1 40364U 14089A   26095.82191560  .00000152  00000+0  00000+0 0  9999
2 40364   0.0549   6.6179 0004955  39.7410 111.8446  1.00274178 41249
SES-9                   
1 41380U 16013A   26095.83770715 -.00000343  00000+0  00000+0 0  9996
2 41380   0.0157 266.5681 0002012 149.3575 188.0691  1.00270963 36712
SES-10                  
1 42432U 17017A   26095.51775824 -.00000271  00000+0  00000+0 0  9991
2 42432   0.0051 112.1658 0002867 279.0982 282.0485  1.00270868 33026
SES-15                  
1 42709U 17026A   26095.64812964  .00000061  00000+0  00000+0 0  9995
2 42709   0.0303 321.5526 0000765  62.8767 273.6753  1.00271138  6707
SES-11 (ECHOSTAR 105)   
1 42967U 17063A   26095.65289632 -.00000088  00000+0  00000+0 0  9993
2 42967   0.0513  54.3950 0002856 338.9299 290.7229  1.00272416 30994
SES-14                  
1 43175U 18012B   26095.80692223 -.00000277  00000+0  00000+0 0  9991
2 43175   0.0061  56.9969 0000960 326.6486  53.4565  1.00272937  6299
O3B FM15                
1 43231U 18024A   26092.13440900 -.00000027  00000+0  00000+0 0  9996
2 43231   0.0502   3.1354 0002633   6.1622 350.7046  5.00115731147223
O3B FM16                
1 43232U 18024B   26095.78479951 -.00000025  00000+0  00000+0 0  9997
2 43232   0.0473   6.6042 0002696   4.8244 348.5765  5.00116044147318
O3B FM14                
1 43233U 18024C   26095.42578920 -.00000025  00000+0  00000+0 0  9995
2 43233   0.0458   6.2308 0002850   9.3737 344.4031  5.00115741147316
O3B FM13                
1 43234U 18024D   26084.69755415 -.00000024  00000+0  00000+0 0  9998
2 43234   0.0470 335.8508 0003967 348.6026  35.5167  5.00115556146887
SES-12                  
1 43488U 18049A   26095.87822834 -.00000268  00000+0  00000+0 0  9998
2 43488   0.0383  46.6758 0001622 267.8436 290.8155  1.00272534 28695
O3B FM20                
1 44112U 19020A   26095.05203959 -.00000025  00000+0  00000+0 0  9995
2 44112   0.0530   0.9141 0002663   2.6728 356.4138  5.00115564127905
O3B FM19                
1 44113U 19020B   26095.07913541 -.00000026  00000+0  00000+0 0  9994
2 44113   0.0578 352.7385 0004290  10.0637 357.1990  5.00116062127780
O3B FM17                
1 44114U 19020C   26095.75889113 -.00000025  00000+0  00000+0 0  9996
2 44114   0.0358 348.7511 0002633  22.7857 348.4681  5.00115517127904
O3B FM18                
1 44115U 19020D   26095.70519481 -.00000025  00000+0  00000+0 0  9990
2 44115   0.0533   1.1669 0002731  14.3141 344.5262  5.00115358128025
SES-17                  
1 49332U 21095A   26095.80302221 -.00000270  00000+0  00000+0 0  9996
2 49332   0.0344  44.4850 0001161 338.6189  32.9787  1.00269557 17128
SES-22                  
1 52933U 22071A   26095.71748227  .00000000  00000+0  00000+0 0  9992
2 52933   0.0145 222.8969 0001265 163.6461 286.7482  1.00270635  6796
SES-20                  
1 53960U 22123A   26095.65324300 -.00000099  00000+0  00000+0 0  9995
2 53960   0.0383  82.3247 0001897 348.5318 255.1565  1.00271519 12808
SES-21                  
1 53961U 22123B   26095.71886895  .00000071  00000+0  00000+0 0  9994
2 53961   0.0252  69.9899 0001009 295.7251 316.0877  1.00269903  6486
O3B MPOWER F1           
1 54755U 22174A   26095.00433162 -.00000026  00000+0  00000+0 0  9990
2 54755   0.0622 348.9934 0005641  43.4576   5.1082  5.00114922 61695
O3B MPOWER F2           
1 54756U 22174B   26095.15002366 -.00000026  00000+0  00000+0 0  9995
2 54756   0.0593 346.1754 0005932  27.2945 346.5447  5.00115573 61797
SES-18                  
1 55970U 23038A   26095.58193360 -.00000099  00000+0  00000+0 0  9996
2 55970   0.0239 260.3775 0001608  76.2291 323.6640  1.00272199 11371
SES-19                  
1 55971U 23038B   26095.71826229  .00000089  00000+0  00000+0 0  9997
2 55971   0.0208 279.1927 0001871 105.0370 293.4543  1.00271322 11357
O3B MPOWER F4           
1 56367U 23059A   26095.61414291 -.00000025  00000+0  00000+0 0  9992
2 56367   0.0643   4.4262 0007051  24.5317 331.0801  5.00116099 54977
O3B MPOWER F3           
1 56368U 23059B   26095.64744129 -.00000025  00000+0  00000+0 0  9992
2 56368   0.0654   4.4262 0006597  14.1633 341.4335  5.00116689 51104
O3B MPOWER F5           
1 58346U 23175A   26094.54877989 -.00000026  00000+0  00000+0 0  9999
2 58346   0.0427   8.9221 0004276  14.6597 336.4364  5.00115742 45759
O3B MPOWER F6           
1 58347U 23175B   26095.44903603 -.00000025  00000+0  00000+0 0  9992
2 58347   0.0502   5.2901 0004866 358.5766 356.1359  5.00116381 44709
ASTRA 1P (SES-24)       
1 60086U 24115A   26095.82009561  .00000121  00000+0  00000+0 0  9998
2 60086   0.0675  26.7041 0002580 295.4577 186.3806  1.00266953  6475
O3B MPOWER F7           
1 62362U 24244A   26095.71515696 -.00000025  00000+0  00000+0 0  9993
2 62362   0.0719   0.9202 0006098  12.7255 346.3698  5.00115224 22896
O3B MPOWER F8           
1 62363U 24244B   26095.68211194 -.00000025  00000+0  00000+0 0  9996
2 62363   0.0410 315.0158 0006392  51.7685 353.2232  5.00115610 17245
O3B MPOWER F9           
1 64866U 25153A   26095.61564383 -.00000025  00000+0  00000+0 0  9990
2 64866   0.0512  14.9752 0005188  25.9093 319.1532  5.00116263 15934
O3B MPOWER F10          
1 64867U 25153B   26095.78138816 -.00000025  00000+0  00000+0 0  9997
2 64867   0.0519   9.9571 0003552 256.9952  93.0060  5.00115053 18403
